<?xml version="1.0" encoding="UTF-8"?>
<ndm xmlns:xsi="http://www.w3.org/2001/XMLSchema-instance" xsi:noNamespaceSchemaLocation="https://sanaregistry.org/r/ndmxml_unqualified/ndmxml-2.0.0-master-2.0.xsd">
<omm id="CCSDS_OMM_VERS" version="2.0">
<header><CREATION_DATE/><ORIGINATOR/></header><body><segment><metadata><OBJECT_NAME>ORBCOMM FM115</OBJECT_NAME><OBJECT_ID>2015-081H</OBJECT_ID><CENTER_NAME>EARTH</CENTER_NAME><REF_FRAME>TEME</REF_FRAME><TIME_SYSTEM>UTC</TIME_SYSTEM><MEAN_ELEMENT_THEORY>SGP4</MEAN_ELEMENT_THEORY></metadata><data><meanElements><EPOCH>2025-04-21T13:13:03.649152</EPOCH><MEAN_MOTION>14.62381037</MEAN_MOTION><ECCENTRICITY>.0000794</ECCENTRICITY><INCLINATION>46.9991</INCLINATION><RA_OF_ASC_NODE>308.9004</RA_OF_ASC_NODE><ARG_OF_PERICENTER>192.7436</ARG_OF_PERICENTER><MEAN_ANOMALY>167.3432</MEAN_ANOMALY></meanElements><tleParameters><EPHEMERIS_TYPE>0</EPHEMERIS_TYPE><CLASSIFICATION_TYPE>U</CLASSIFICATION_TYPE><NORAD_CAT_ID>41186</NORAD_CAT_ID><ELEMENT_SET_NO>999</ELEMENT_SET_NO><REV_AT_EPOCH>49948</REV_AT_EPOCH><BSTAR>.33587E-3</BSTAR><MEAN_MOTION_DOT>.154E-4</MEAN_MOTION_DOT><MEAN_MOTION_DDOT>0</MEAN_MOTION_DDOT></tleParameters></data></segment></body></omm>
<omm id="CCSDS_OMM_VERS" version="2.0">
<header><CREATION_DATE/><ORIGINATOR/></header><body><segment><metadata><OBJECT_NAME>ORBCOMM FM108</OBJECT_NAME><OBJECT_ID>2015-081J</OBJECT_ID><CENTER_NAME>EARTH</CENTER_NAME><REF_FRAME>TEME</REF_FRAME><TIME_SYSTEM>UTC</TIME_SYSTEM><MEAN_ELEMENT_THEORY>SGP4</MEAN_ELEMENT_THEORY></metadata><data><meanElements><EPOCH>2025-04-21T02:11:34.055232</EPOCH><MEAN_MOTION>14.58024323</MEAN_MOTION><ECCENTRICITY>.0002398</ECCENTRICITY><INCLINATION>47.0055</INCLINATION><RA_OF_ASC_NODE>16.5878</RA_OF_ASC_NODE><ARG_OF_PERICENTER>39.7703</ARG_OF_PERICENTER><MEAN_ANOMALY>320.3358</MEAN_ANOMALY></meanElements><tleParameters><EPHEMERIS_TYPE>0</EPHEMERIS_TYPE><CLASSIFICATION_TYPE>U</CLASSIFICATION_TYPE><NORAD_CAT_ID>41187</NORAD_CAT_ID><ELEMENT_SET_NO>999</ELEMENT_SET_NO><REV_AT_EPOCH>49846</REV_AT_EPOCH><BSTAR>.40539E-3</BSTAR><MEAN_MOTION_DOT>.1712E-4</MEAN_MOTION_DOT><MEAN_MOTION_DDOT>0</MEAN_MOTION_DDOT></tleParameters></data></segment></body></omm>
<omm id="CCSDS_OMM_VERS" version="2.0">
<header><CREATION_DATE/><ORIGINATOR/></header><body><segment><metadata><OBJECT_NAME>ORBCOMM FM117</OBJECT_NAME><OBJECT_ID>2015-081K</OBJECT_ID><CENTER_NAME>EARTH</CENTER_NAME><REF_FRAME>TEME</REF_FRAME><TIME_SYSTEM>UTC</TIME_SYSTEM><MEAN_ELEMENT_THEORY>SGP4</MEAN_ELEMENT_THEORY></metadata><data><meanElements><EPOCH>2025-04-21T01:23:00.041568</EPOCH><MEAN_MOTION>14.58031679</MEAN_MOTION><ECCENTRICITY>.0002772</ECCENTRICITY><INCLINATION>47.0019</INCLINATION><RA_OF_ASC_NODE>15.5286</RA_OF_ASC_NODE><ARG_OF_PERICENTER>49.6474</ARG_OF_PERICENTER><MEAN_ANOMALY>310.4654</MEAN_ANOMALY></meanElements><tleParameters><EPHEMERIS_TYPE>0</EPHEMERIS_TYPE><CLASSIFICATION_TYPE>U</CLASSIFICATION_TYPE><NORAD_CAT_ID>41188</NORAD_CAT_ID><ELEMENT_SET_NO>999</ELEMENT_SET_NO><REV_AT_EPOCH>49850</REV_AT_EPOCH><BSTAR>.40194E-3</BSTAR><MEAN_MOTION_DOT>.1696E-4</MEAN_MOTION_DOT><MEAN_MOTION_DDOT>0</MEAN_MOTION_DDOT></tleParameters></data></segment></body></omm>
<omm id="CCSDS_OMM_VERS" version="2.0">
<header><CREATION_DATE/><ORIGINATOR/></header><body><segment><metadata><OBJECT_NAME>ORBCOMM FM116</OBJECT_NAME><OBJECT_ID>2015-081L</OBJECT_ID><CENTER_NAME>EARTH</CENTER_NAME><REF_FRAME>TEME</REF_FRAME><TIME_SYSTEM>UTC</TIME_SYSTEM><MEAN_ELEMENT_THEORY>SGP4</MEAN_ELEMENT_THEORY></metadata><data><meanElements><EPOCH>2025-04-21T10:59:30.986592</EPOCH><MEAN_MOTION>14.58324314</MEAN_MOTION><ECCENTRICITY>.0002002</ECCENTRICITY><INCLINATION>47.0011</INCLINATION><RA_OF_ASC_NODE>103.4854</RA_OF_ASC_NODE><ARG_OF_PERICENTER>267.1610</ARG_OF_PERICENTER><MEAN_ANOMALY>92.9047</MEAN_ANOMALY></meanElements><tleParameters><EPHEMERIS_TYPE>0</EPHEMERIS_TYPE><CLASSIFICATION_TYPE>U</CLASSIFICATION_TYPE><NORAD_CAT_ID>41189</NORAD_CAT_ID><ELEMENT_SET_NO>999</ELEMENT_SET_NO><REV_AT_EPOCH>49737</REV_AT_EPOCH><BSTAR>.41497E-3</BSTAR><MEAN_MOTION_DOT>.1769E-4</MEAN_MOTION_DOT><MEAN_MOTION_DDOT>0</MEAN_MOTION_DDOT></tleParameters></data></segment></body></omm>
</ndm>
