ORBCOMM FM115           
1 41186U 15081H   25111.55073668  .00001540  00000+0  33587-3 0  9993
2 41186  46.9991 308.9004 0000794 192.7436 167.3432 14.62381037499481
ORBCOMM FM108           
1 41187U 15081J   25111.09136638  .00001712  00000+0  40539-3 0  9996
2 41187  47.0055  16.5878 0002398  39.7703 320.3358 14.58024323498467
ORBCOMM FM117           
1 41188U 15081K   25111.05763937  .00001696  00000+0  40194-3 0  9999
2 41188  47.0019  15.5286 0002772  49.6474 310.4654 14.58031679498507
ORBCOMM FM116           
1 41189U 15081L   25111.45799753  .00001769  00000+0  41497-3 0  9997
2 41189  47.0011 103.4854 0002002 267.1610  92.9047 14.58324314497376
